{
  "type": "FeatureCollection",
  "features": [
    {
      "type": "Feature",
      "properties": {
        "norad_id": 66415,
        "name": "HULIANWANG DIGUI 13D",
        "group": "last-30-days",
        "lat": 41.00111553474742,
        "lon": -38.32853549781216,
        "alt_km": 815.1341432775307,
        "timestamp": "2025-12-09T16:56:35.357654+00:00",
        "meta_object_name": "HULIANWANG DIGUI 13D",
        "meta_object_id": "2025-258D",
        "meta_epoch": "2025-12-08T18:43:14.477088",
        "meta_mean_motion": 14.20669566,
        "meta_eccentricity": 0.00073015,
        "meta_inclination": 50.0039,
        "meta_ra_of_asc_node": 278.6799,
        "meta_arg_of_pericenter": 351.1938,
        "meta_mean_anomaly": 8.8844,
        "meta_ephemeris_type": 0,
        "meta_classification_type": "U",
        "meta_norad_cat_id": 66415,
        "meta_element_set_no": 999,
        "meta_rev_at_epoch": 409,
        "meta_bstar": 0.00031109029,
        "meta_mean_motion_dot": 5.16e-06,
        "meta_mean_motion_ddot": 0,
        "tle_line1": "1 66415U 25258D   25342.78002867  .00000516  00000+0  31109-3 0  9996",
        "tle_line2": "2 66415  50.0039 278.6799 0007301 351.1938   8.8844 14.20669566  4090"
      },
      "geometry": {
        "type": "Point",
        "coordinates": [
          -38.32853549781216,
          41.00111553474742
        ]
      }
    },
    {
      "type": "Feature",
      "properties": {
        "norad_id": 66416,
        "name": "HULIANWANG DIGUI 13E",
        "group": "last-30-days",
        "lat": 20.343005764825847,
        "lon": -67.00191531762279,
        "alt_km": 820.4291424868916,
        "timestamp": "2025-12-09T16:56:35.357664+00:00",
        "meta_object_name": "HULIANWANG DIGUI 13E",
        "meta_object_id": "2025-258E",
        "meta_epoch": "2025-12-08T20:32:41.838720",
        "meta_mean_motion": 14.19737012,
        "meta_eccentricity": 0.00054325,
        "meta_inclination": 50.0065,
        "meta_ra_of_asc_node": 278.4193,
        "meta_arg_of_pericenter": 353.4979,
        "meta_mean_anomaly": 6.5861,
        "meta_ephemeris_type": 0,
        "meta_classification_type": "U",
        "meta_norad_cat_id": 66416,
        "meta_element_set_no": 999,
        "meta_rev_at_epoch": 410,
        "meta_bstar": 0.00052022301,
        "meta_mean_motion_dot": 9.5e-06,
        "meta_mean_motion_ddot": 0,
        "tle_line1": "1 66416U 25258E   25342.85603980  .00000950  00000+0  52022-3 0  9997",
        "tle_line2": "2 66416  50.0065 278.4193 0005432 353.4979   6.5861 14.19737012  4105"
      },
      "geometry": {
        "type": "Point",
        "coordinates": [
          -67.00191531762279,
          20.343005764825847
        ]
      }
    },
    {
      "type": "Feature",
      "properties": {
        "norad_id": 66417,
        "name": "HULIANWANG DIGUI 13F",
        "group": "last-30-days",
        "lat": 27.394581905882067,
        "lon": -59.387493910463334,
        "alt_km": 819.4508188224754,
        "timestamp": "2025-12-09T16:56:35.357677+00:00",
        "meta_object_name": "HULIANWANG DIGUI 13F",
        "meta_object_id": "2025-258F",
        "meta_epoch": "2025-12-08T20:30:02.663136",
        "meta_mean_motion": 14.19898124,
        "meta_eccentricity": 0.00049712,
        "meta_inclination": 50.0014,
        "meta_ra_of_asc_node": 278.3846,
        "meta_arg_of_pericenter": 352.5523,
        "meta_mean_anomaly": 7.5313,
        "meta_ephemeris_type": 0,
        "meta_classification_type": "U",
        "meta_norad_cat_id": 66417,
        "meta_element_set_no": 999,
        "meta_rev_at_epoch": 410,
        "meta_bstar": 0.0004539907,
        "meta_mean_motion_dot": 8.12e-06,
        "meta_mean_motion_ddot": 0,
        "tle_line1": "1 66417U 25258F   25342.85419749  .00000812  00000+0  45399-3 0  9992",
        "tle_line2": "2 66417  50.0014 278.3846 0004971 352.5523   7.5313 14.19898124  4101"
      },
      "geometry": {
        "type": "Point",
        "coordinates": [
          -59.387493910463334,
          27.394581905882067
        ]
      }
    },
    {
      "type": "Feature",
      "properties": {
        "norad_id": 66418,
        "name": "HULIANWANG DIGUI 13G",
        "group": "last-30-days",
        "lat": 44.837260577541585,
        "lon": -28.638245709874447,
        "alt_km": 816.5181774602652,
        "timestamp": "2025-12-09T16:56:35.357687+00:00",
        "meta_object_name": "HULIANWANG DIGUI 13G",
        "meta_object_id": "2025-258G",
        "meta_epoch": "2025-12-08T20:22:07.229856",
        "meta_mean_motion": 14.20510798,
        "meta_eccentricity": 0.00055793,
        "meta_inclination": 50.0031,
        "meta_ra_of_asc_node": 278.3586,
        "meta_arg_of_pericenter": 346.1381,
        "meta_mean_anomaly": 13.9377,
        "meta_ephemeris_type": 0,
        "meta_classification_type": "U",
        "meta_norad_cat_id": 66418,
        "meta_element_set_no": 999,
        "meta_rev_at_epoch": 410,
        "meta_bstar": 0.00039264944,
        "meta_mean_motion_dot": 6.91e-06,
        "meta_mean_motion_ddot": 0,
        "tle_line1": "1 66418U 25258G   25342.84869479  .00000691  00000+0  39265-3 0  9991",
        "tle_line2": "2 66418  50.0031 278.3586 0005579 346.1381  13.9377 14.20510798  4109"
      },
      "geometry": {
        "type": "Point",
        "coordinates": [
          -28.638245709874447,
          44.837260577541585
        ]
      }
    },
    {
      "type": "Feature",
      "properties": {
        "norad_id": 66419,
        "name": "HULIANWANG DIGUI 13H",
        "group": "last-30-days",
        "lat": -45.426262422722886,
        "lon": -9.594105627846437,
        "alt_km": 451.92227595824534,
        "timestamp": "2025-12-09T16:56:35.357697+00:00",
        "meta_object_name": "HULIANWANG DIGUI 13H",
        "meta_object_id": "2025-258H",
        "meta_epoch": "2025-12-08T14:58:00.814656",
        "meta_mean_motion": 15.39596954,
        "meta_eccentricity": 0.00012505,
        "meta_inclination": 53.1596,
        "meta_ra_of_asc_node": 125.9585,
        "meta_arg_of_pericenter": 98.9072,
        "meta_mean_anomaly": 261.2074,
        "meta_ephemeris_type": 0,
        "meta_classification_type": "U",
        "meta_norad_cat_id": 66419,
        "meta_element_set_no": 999,
        "meta_rev_at_epoch": 804,
        "meta_bstar": 0.0024249346,
        "meta_mean_motion_dot": 0.00097774,
        "meta_mean_motion_ddot": 0,
        "tle_line1": "1 66419U 25258H   25342.62362054  .00097774  00000+0  24249-2 0  9998",
        "tle_line2": "2 66419  53.1596 125.9585 0001250  98.9072 261.2074 15.39596954  8045"
      },
      "geometry": {
        "type": "Point",
        "coordinates": [
          -9.594105627846437,
          -45.426262422722886
        ]
      }
    },
    {
      "type": "Feature",
      "properties": {
        "norad_id": 66420,
        "name": "HULIANWANG DIGUI 13J",
        "group": "last-30-days",
        "lat": 49.79965623953407,
        "lon": -1.8090155024496515,
        "alt_km": 815.9100621395128,
        "timestamp": "2025-12-09T16:56:35.357708+00:00",
        "meta_object_name": "HULIANWANG DIGUI 13J",
        "meta_object_id": "2025-258J",
        "meta_epoch": "2025-12-08T20:17:06.442944",
        "meta_mean_motion": 14.20810839,
        "meta_eccentricity": 0.00037732,
        "meta_inclination": 50.0024,
        "meta_ra_of_asc_node": 278.346,
        "meta_arg_of_pericenter": 347.1433,
        "meta_mean_anomaly": 12.9382,
        "meta_ephemeris_type": 0,
        "meta_classification_type": "U",
        "meta_norad_cat_id": 66420,
        "meta_element_set_no": 999,
        "meta_rev_at_epoch": 409,
        "meta_bstar": 0.00037258505,
        "meta_mean_motion_dot": 6.52e-06,
        "meta_mean_motion_ddot": 0,
        "tle_line1": "1 66420U 25258J   25342.84521346  .00000652  00000+0  37259-3 0  9990",
        "tle_line2": "2 66420  50.0024 278.3460 0003773 347.1433  12.9382 14.20810839  4090"
      },
      "geometry": {
        "type": "Point",
        "coordinates": [
          -1.8090155024496515,
          49.79965623953407
        ]
      }
    },
    {
      "type": "Feature",
      "properties": {
        "norad_id": 66421,
        "name": "CZ-12 R/B",
        "group": "last-30-days",
        "lat": 1.3761721909836506,
        "lon": 89.95547578579952,
        "alt_km": 728.2321125503231,
        "timestamp": "2025-12-09T16:56:35.357721+00:00",
        "meta_object_name": "CZ-12 R/B",
        "meta_object_id": "2025-258K",
        "meta_epoch": "2025-12-09T07:48:03.220992",
        "meta_mean_motion": 14.42322551,
        "meta_eccentricity": 0.00645343,
        "meta_inclination": 49.9957,
        "meta_ra_of_asc_node": 272.765,
        "meta_arg_of_pericenter": 237.1319,
        "meta_mean_anomaly": 122.338,
        "meta_ephemeris_type": 0,
        "meta_classification_type": "U",
        "meta_norad_cat_id": 66421,
        "meta_element_set_no": 999,
        "meta_rev_at_epoch": 423,
        "meta_bstar": 0.00015260249,
        "meta_mean_motion_dot": 3.5e-06,
        "meta_mean_motion_ddot": 0,
        "tle_line1": "1 66421U 25258K   25343.32503728  .00000350  00000+0  15260-3 0  9992",
        "tle_line2": "2 66421  49.9957 272.7650 0064534 237.1319 122.3380 14.42322551  4238"
      },
      "geometry": {
        "type": "Point",
        "coordinates": [
          89.95547578579952,
          1.3761721909836506
        ]
      }
    }
  ]
}